INTELSAT 902 (IS-902)   
1 26900U 01039A   26165.17973993 -.00000280  00000+0  00000+0 0  9997
2 26900   6.1100  71.8210 0004506   7.7564 197.5086  1.00271075 90660
INTELSAT 904 (IS-904)   
1 27380U 02007A   26165.11207642 -.00000222  00000+0  00000+0 0  9997
2 27380   6.9122  69.2210 0006475   4.0178 198.0362  1.00271184 51733
DIRECTV 5 (TEMPO 1)     
1 27426U 02023A   26165.38169906 -.00000053  00000+0  00000+0 0  9997
2 27426   4.8706  75.3448 0003222  21.7238 192.9212  1.00271440 88091
INTELSAT 905 (IS-905)   
1 27438U 02027A   26165.41207911  .00000096  00000+0  00000+0 0  9993
2 27438   6.7466  69.8329 0003806  21.0190 182.9942  1.00272319 51334
GALAXY 3C (G-3C)        
1 27445U 02030A   26165.39485632 -.00000148  00000+0  00000+0 0  9999
2 27445   3.7243  78.0117 0001531  34.2243 197.7579  1.00271120 46464
INTELSAT 906 (IS-906)   
1 27513U 02041A   26165.20302568  .00000017  00000+0  00000+0 0  9997
2 27513   5.7955  72.9589 0004639   3.9186 322.8531  1.00272354 86990
GALAXY 13 (HORIZONS-1)  
1 27954U 03044A   26165.46016844  .00000139  00000+0  00000+0 0  9992
2 27954   1.4126  83.8992 0002302 349.0479 205.4691  1.00269797 46542
INTELSAT 10-02          
1 28358U 04022A   26165.40336583 -.00000004  00000+0  00000+0 0  9999
2 28358   0.0108 324.0878 0000193 256.5276 186.2869  1.00269700 80525
DIRECTV 8               
1 28659U 05019A   26165.45126329  .00000009  00000+0  00000+0 0  9994
2 28659   0.0131 297.3389 0002757 148.5232 220.2884  1.00270501 77044
GALAXY 28 (G-28)        
1 28702U 05022A   26165.39816581 -.00000195  00000+0  00000+0 0  9993
2 28702   3.2917  78.9679 0002870   3.2245 296.7451  1.00271143 51944
GALAXY 16 (G-16)        
1 29236U 06023A   26165.45524998 -.00000119  00000+0  00000+0 0  9999
2 29236   0.0152 281.3519 0002408 173.4081 232.8774  1.00270276 72949
DIRECTV 9S              
1 29494U 06043A   26165.45481663 -.00000108  00000+0  00000+0 0  9996
2 29494   2.4137  80.9337 0004836  11.3384 233.0260  1.00270838 51357
GALAXY 17 (G-17)        
1 31307U 07016B   26165.45802331 -.00000201  00000+0  00000+0 0  9996
2 31307   2.9653  79.9335 0004753  22.1396 240.5632  1.00269560 69779
INTELSAT 11 (IS-11)     
1 32253U 07044B   26165.50207046 -.00000274  00000+0  00000+0 0  9996
2 32253   3.5585  78.7008 0002223  91.2021  51.3077  0.99052010 68426
HORIZONS-2              
1 32388U 07063B   26165.46019000 -.00000248  00000+0  00000+0 0  9993
2 32388   2.5950  80.6576 0003716   0.4533 273.5294  1.00269281 67780
DIRECTV 11              
1 32729U 08013A   26165.45516330 -.00000118  00000+0  00000+0 0  9991
2 32729   0.0106 283.4991 0000315  84.8654 319.0725  1.00271642 45562
GALAXY 18 (G-18)        
1 32951U 08024A   26165.45048329  .00000000  00000+0  00000+0 0  9997
2 32951   0.0256  13.0140 0002687  72.0651 216.8384  1.00271479 45820
INTELSAT 25 (IS-25)     
1 33153U 08034A   26165.50129046 -.00000261  00000+0  00000+0 0  9995
2 33153   2.7028  80.4028 0003161  59.5552  76.9131  0.99036047 65668
GALAXY 19 (G-19)        
1 33376U 08045A   26165.45559663  .00000000  00000+0  00000+0 0  9990
2 33376   0.0206   3.9037 0002437  84.0948 241.7761  1.00270206 64874
FM-5                    
1 35493U 09034A   26165.45776331 -.00000193  00000+0  00000+0 0  9998
2 35493   0.0209 291.7002 0000798  21.6669  28.0375  1.00273628 46613
INTELSAT 14 (IS-14)     
1 36097U 09064A   26165.46591002 -.00000266  00000+0  00000+0 0  9994
2 36097   0.0178  43.6645 0002146  31.6715 310.1694  1.00270448 60575
INTELSAT 15 (IS-15)     
1 36106U 09067A   26165.49173682 -.00000178  00000+0  00000+0 0  9993
2 36106   0.0196  47.8433 0002013  39.3730  77.7494  1.00270818 41206
DIRECTV 12              
1 36131U 09075A   26165.50113971 -.00000096  00000+0  00000+0 0  9996
2 36131   0.0092 105.1956 0000341 293.5877 301.7061  1.00272446 46524
INTELSAT 16 (IS-16)     
1 36397U 10006A   26165.45975667 -.00000237  00000+0  00000+0 0  9995
2 36397   0.0223 300.5111 0001906 165.2154 246.3468  1.00269536 59625
XM-5                    
1 37185U 10053A   26165.50670014 -.00000016  00000+0  00000+0 0  9992
2 37185   0.0643 273.2093 0002915 287.0908 129.7245  1.00272045 57458
INTELSAT 17 (IS-17)     
1 37238U 10065B   26165.48792345  .00000006  00000+0  00000+0 0  9991
2 37238   0.0077  75.7487 0002570  15.9264  52.7571  1.00271244 53228
INTELSAT 28 (IS-28)     
1 37392U 11016A   26165.39721249 -.00000219  00000+0  00000+0 0  9991
2 37392   1.7990  82.6536 0003579   5.4221 285.9092  1.00270299 53250
INTELSAT 18 (IS-18)     
1 37834U 11056A   26165.43918064  .00000061  00000+0  00000+0 0  9998
2 37834   0.0172 293.8107 0001647 143.5188 163.5143  1.00273358 53780
INTELSAT 22 (IS-22)     
1 38098U 12011A   26165.55453045  .00000000  00000+0  00000+0 0  9992
2 38098   0.0398  52.0363 0001592  46.2017  76.3269  1.00271252  7163
INTELSAT 19 (IS-19)     
1 38356U 12030A   26165.50770382 -.00000049  00000+0  00000+0 0  9995
2 38356   0.0173 339.3923 0002783 112.1310 160.0537  1.00270945 50420
INTELSAT 20 (IS-20)     
1 38740U 12043A   26165.48844345 -.00000017  00000+0  00000+0 0  9999
2 38740   0.0033  60.8784 0001651 116.2799 329.9816  1.00269404 50729
